X,Y,OBJECTID,BusinessName,Address,Suite,City,State,Zip,PhoneNumber,BusinessType,OwnerName
-90.066795162429386,29.953230341392945,84858,7 DAYS CONVENIENCE STORE,529 IBERVILLE ST,,NEW ORLEANS,LA,70130,,1101 - CONVENIENCE STORES,"7 DAYS CONVENIENCE STORE, LLC"
-89.92904199581163,30.031986057266,84859,99 SUPERMARKET,4646 MICHOUD BLVD,,NEW ORLEANS,LA,70129,504-628-7208,1106 - GROCERY (EXC CONVENIENCE) STORES,99 CORPORATION INC
-89.999912773961029,29.911395962498684,84860,A & J'S MART,5163 GENERAL DE GAULLE DR,,NEW ORLEANS,LA,70131,504-394-4410,1101 - CONVENIENCE STORES,ARAMIX INC.
-90.061956772381436,29.967917482703371,84861,A & M FOOD STORE,1741 MCSHANE PL,,NEW ORLEANS,LA,70116,,1106 - GROCERY (EXC CONVENIENCE) STORES,A & M FOOD STORE LLC
-90.076989294556824,29.951922709288411,84862,ADAMS FOOD STORE #3,3001 BIENVILLE ST,,NEW ORLEANS,LA,70119-5401,504-861-1120,1101 - CONVENIENCE STORES,"LISA & LIZ, CORP        NGUYEN, BA V"
-90.125334422118684,29.945537782293108,84863,ADAMS STREET GROCERY,1309 ADAMS ST,,NEW ORLEANS,LA,70118,,1101 - CONVENIENCE STORES,B & N FOOD STORE INC
-90.076989294556824,29.951922709288411,84864,AEREN'S SUPERMARKET,3911 WASHINGTON AVE,,NEW ORLEANS,LA,70125,504-302-9875,1106 - GROCERY (EXC CONVENIENCE) STORES,"ZEYNA, LLC"
-90.000904322954867,29.911994827895914,84865,ALG DISCOUNT,5101 GENERAL DE GAULLE DR,,NEW ORLEANS,LA,70131,504-253-1254,1101 - CONVENIENCE STORES,"ALG DISCOUNT, LLC"
-90.052082721171715,29.946698174991507,84866,ALGIERS CENTRAL MARKET,840 TECHE ST,,NEW ORLEANS,LA,70114,504-366-3221,1106 - GROCERY (EXC CONVENIENCE) STORES,"ALGIERS CENTRAL,INC"
-90.019276118740407,29.938688005791516,84867,ALGIERS DISCOUNT FOOD STORE,3549 GENERAL MEYER AVE,,NEW ORLEANS,LA,70114,,1106 - GROCERY (EXC CONVENIENCE) STORES,ALGIERS DISCOUNT FOOD STORE INC
-90.022968620618641,29.940426723667752,84868,ALGIERS SUPERMARKET,3141 GENERAL MEYER AVE,,NEW ORLEANS,LA,70114,,1106 - GROCERY (EXC CONVENIENCE) STORES,"ALGIERS SUPERMARKET,LLC"
-90.086909092935755,29.957317578608805,84869,"ALLIANCE SUPPLY MANGEMENT, LTD",555 S GALVEZ ST,,NEW ORLEANS,LA,70119,713-335-2500,"0138 - GROCERY & RELATED PRDCTS WHLSRS, OTH","ALLIANCE SUPPLY MANGEMENT, LTD"
-90.05822235946026,29.967229573273769,84870,ALOIS J BINDER BAKERY,940 FRENCHMEN ST,,NEW ORLEANS,LA,70116,,"0138 - GROCERY & RELATED PRDCTS WHLSRS, OTH",ALOIS J BINDER BAKERY INC
-90.058418996106724,29.961028678934539,84871,ALTALIEH CONVENIENCE,87 FRENCH MARKET PL,,NEW ORLEANS,LA,70116,504-339-8438,1101 - CONVENIENCE STORES,ALTALIEH CONVENIENCE LLC
-90.076989294556824,29.951922709288411,84872,AMERICAN SEAFOOD INC,3034 HAVANA ST,,NEW ORLEANS,LA,70122,,0135 - FISH & SEAFOOD WHLSRS,"HESS WAYNE B            ENGERON, DANIEL J"
-90.068797991638206,29.955838482172968,84873,ARNAUD'S FOOD COMPANY'S  INC,813 BIENVILLE ST,,NEW ORLEANS,LA,70112,504-523-5433,"0138 - GROCERY & RELATED PRDCTS WHLSRS, OTH",ARNAUD'S FOOD COMPANY IN
-90.066808496322963,29.929229796583222,84874,AZ EXPRESS,1667 TCHOUPITOULAS ST,,NEW ORLEANS,LA,70130,,1101 - CONVENIENCE STORES,"AZ EXPRESS,LLC"
-90.07440595209323,29.928522905326496,84875,B & S FOOD STORE,842 JOSEPHINE ST,,NEW ORLEANS,LA,70130,,1106 - GROCERY (EXC CONVENIENCE) STORES,JOSEPHINE FOOD STORE LLC
-90.059070365526154,29.989534644460708,84876,B XPRESS ELYSIAN FIELDS,3032 ELYSIAN FIELDS AVE,,NEW ORLEANS,LA,70122,,1101 - CONVENIENCE STORES,B XPRESS ELYSIAN FIELDS LLC
-90.092867040415953,29.930129203632102,84877,BACK ON THE AVENUE,3401 BARONNE ST,,NEW ORLEANS,LA,70115,,1106 - GROCERY (EXC CONVENIENCE) STORES,BACK ON THE AVENUE LLC
-90.089483809770712,29.963475055077673,84878,BANKS MEAT MARKET,325 S BROAD ST,,NEW ORLEANS,LA,70119,504-822-9004,1103 - MEAT MARKETS,"JADE, INC"
-90.091735812394006,29.919281079426849,84879,BARCIA'S GROCERY INC,3633 ANNUNCIATION ST,,NEW ORLEANS,LA,70115-1306,504-899-9111,1101 - CONVENIENCE STORES,"BARCIA'S GROCERY INC    ORGANO, ANN B"
-90.072237969407723,29.957895506674369,84880,BASIN SUPERMARKET,237 BASIN ST,,NEW ORLEANS,LA,70112,504-522-7947,1101 - CONVENIENCE STORES,BASIN SUPERMARKET INC
-90.084367260284168,29.943846847442579,84881,BAYOU FOOD STORE OF N. O,2432 MARTIN LUTHER KING JR BLVD,,NEW ORLEANS,LA,70113,504-522-1004,1101 - CONVENIENCE STORES,"NGA, INC"
-90.07215398113334,29.954910959124106,84882,BAYOU GIFTS,1000 CANAL ST,,NEW ORLEANS,LA,70130,,"1110 - BEER, WINE & LIQUOR STORES","MAGNOLIA ENTERPRISES, INC."
-90.019653557107006,29.909383174245512,84883,BEHRMAN CAJUN SEAFOOD,4021 BEHRMAN HWY,C,NEW ORLEANS,LA,70114,504-813-3986,1104 - FISH & SEAFOOD MARKETS,BEHRMAN CAJUN SEAFOOD   INC
-89.984049667321074,29.923220297257739,84884,BENNS GROCERY,6445 ISADORE ST,,NEW ORLEANS,LA,70131,504-394-5800,1101 - CONVENIENCE STORES,"BENN, KERMIT"
-89.818452798836063,30.070799135256877,84885,BIG BOY DISTRIBUTORS,4441 SAN GIORGIO ST,,NEW ORLEANS,LA,70129,504-628-5689,"0138 - GROCERY & RELATED PRDCTS WHLSRS, OTH",BIG BOY DISTRIBUTORS LLC
-90.063233957185176,29.95600245217895,84886,BIG EASY MARDI GRAS CO,600 DECATUR ST,,NEW ORLEANS,LA,70130,504-524-4729,1101 - CONVENIENCE STORES,BIG EASY MARDI GRAS CO LLC
-90.087905076466924,29.923505269288203,84887,BIG FISHERMAN SEAFOOD,3301 MAGAZINE ST,,NEW ORLEANS,LA,70115,504-897-9907,1104 - FISH & SEAFOOD MARKETS,BIG FISHERMAN SEAFOOD INC
-90.067195809343275,29.971623071318916,84888,BIG MIKE'S SEAFOOD,1525 N CLAIBORNE AVE,,NEW ORLEANS,LA,70116,,1106 - GROCERY (EXC CONVENIENCE) STORES,ZAKITA DILLON
-90.046009597107215,30.002275896835144,84889,BOILING POT AT GENTILLY,3868 GENTILLY BLVD,,NEW ORLEANS,LA,70122,,1101 - CONVENIENCE STORES,"BOILING POT AT GENTILLY,LLC"
-90.087753150926886,29.924002275098037,84890,BREAUX MART SUPERMARKETS,3233 MAGAZINE ST,,NEW ORLEANS,LA,70115,,1106 - GROCERY (EXC CONVENIENCE) STORES,BREAUX MART SUPERMARKETS INC
-90.089298374993746,29.962899643896915,84891,BROAD & BANKS SEAFOOD,342 S BROAD ST,,NEW ORLEANS,LA,70119,,1106 - GROCERY (EXC CONVENIENCE) STORES,HOANG AN INC
-90.076793346064491,29.977381186009687,84892,BROADVIEW SEAFOOD,1468 N BROAD ST,,NEW ORLEANS,LA,70119,504-945-2118,1104 - FISH & SEAFOOD MARKETS,"DON DO, INC"
-90.116208668355128,29.950540239961921,84893,BROADWAY FOOD STORE,2223 BROADWAY ST,,NEW ORLEANS,LA,70118-5409,504-861-0505,1101 - CONVENIENCE STORES,BWC INC
-90.065171684858981,29.982197364222213,84894,BROOKS GROCERY,2434 ALLEN ST,,NEW ORLEANS,LA,70119,,1106 - GROCERY (EXC CONVENIENCE) STORES,COUSIN'S FOODMART INC.
-90.091054336351263,29.93180589171493,84895,BROTHER CORNER GROCERY,3201 DRYADES ST,,NEW ORLEANS,LA,70115,504-891-0275,1101 - CONVENIENCE STORES,"PARKS, EDWARD"
-90.018418782096802,29.924205714991714,84896,BROTHER FOOD MART NO. 136,3622 GENERAL DE GAULLE DR,,NEW ORLEANS,LA,70114,504-366-2413,1101 - CONVENIENCE STORES,"EXXON GENERAL DEGAULLE, LLC"
-90.021193545903472,29.961977141681395,84897,BROTHER'S ST CLAUDE,5104 ST CLAUDE AVE,A,NEW ORLEANS,LA,70117,504-220-3777,1101 - CONVENIENCE STORES,ST. CLAUDE DISCOUNT LLC
-90.085845189083415,29.945232664902033,84898,BROTHERS DISCOUNT,2701 MARTIN LUTHER KING JR BLVD,,NEW ORLEANS,LA,70113,504-525-5300,1101 - CONVENIENCE STORES,AZZAM INC
-89.991699695334361,30.02762875067998,84899,BROTHERS FOOD MART  NO 132,5701 CROWDER BLVD,,NEW ORLEANS,LA,70127,504-366-2413,1101 - CONVENIENCE STORES,CROWDER BROTHERS LLC
-90.070761844303561,29.952739693868587,84900,BROTHERS FOOD MART 109,148 CARONDELET ST,,NEW ORLEANS,LA,70130,,1106 - GROCERY (EXC CONVENIENCE) STORES,"148 CARONDELET STREET,LLC"
-90.037112015450077,29.945396583192309,84901,BROTHERS FOOD MART NO 122,1926 NEWTON ST,,NEW ORLEANS,LA,70114,504-366-2413,1101 - CONVENIENCE STORES,NEWTON BROTHERS INC
-89.961730828006466,30.047884086460851,84902,BROTHERS FOOD MART NO 127,7001 BULLARD AVE,,NEW ORLEANS,LA,70128,,1101 - CONVENIENCE STORES,BULLARD BROTHERS NO 127 LLC
-90.049790320384005,29.972151382526782,84903,BROTHERS FRANKLIN,2509 N VILLERE ST,,NEW ORLEANS,LA,70117,504-495-3342,1101 - CONVENIENCE STORES,BROTHERS FRANKLIN INC
-90.073256003926687,29.964840731720873,84904,BROWN DERBY,755 N CLAIBORNE AVE,,NEW ORLEANS,LA,70116,,1106 - GROCERY (EXC CONVENIENCE) STORES,FATHER 4 SONS LLC
-90.097667892428348,29.964742219750207,84905,BROWN DERBY #3,3326 TULANE AVE,,NEW ORLEANS,LA,70119,504-827-7899,1101 - CONVENIENCE STORES,NEW CITY MART LLC
-90.053327759356492,29.997409977523347,84906,BROWN DERBY #4,3737 CLEMATIS ST,,NEW ORLEANS,LA,70122,,1105 - FULL SVC RESTAURANTS (TABLE SERVICE),SANAD LLC
-90.076989294556824,29.951922709288411,84907,BRUFF STUFF,31 MCALISTER DR,,NEW ORLEANS,LA,70118,504-865-5293,1101 - CONVENIENCE STORES,SODEXO MANAGEMENT INC
-90.076989294556824,29.951922709288411,84908,BUNN'S GROCERY,2438 BIENVILLE ST,,NEW ORLEANS,LA,70119,,"0138 - GROCERY & RELATED PRDCTS WHLSRS, OTH",KEITH BUNN
-90.079306760076292,29.968755405930771,84909,BUSY BEE FOOD STORE,2401 ORLEANS AVE,A,NEW ORLEANS,LA,70119-5027,504-821-5586,1101 - CONVENIENCE STORES,ABUALI FADI A
-90.076842453140756,29.950800942237869,84910,C C K SNACK SHOP,1250 POYDRAS ST,,NEW ORLEANS,LA,70112,504-523-6709,1109 - CONFECTIONERY & NUT STORES,"KUY, HEANG D"
-90.057929490189395,29.964286868696014,84911,CAFE ROSE NICAUD,632 FRENCHMEN ST,,NEW ORLEANS,LA,70116,504-948-6823,1105 - FULL SVC RESTAURANTS (TABLE SERVICE),PROJECT RENAISSANCE LLC
-90.066380753172197,29.951021755180449,84912,CAJUN COUNTRY STORE,400 CANAL ST,,NEW ORLEANS,LA,70130,504-586-8753,1101 - CONVENIENCE STORES,DEEP SOUTH GROCERY CO IN
-90.128625278159589,29.919688800789469,84913,CAJUN MOON PRODUCTS,6337 TCHOUPITOULAS ST,,NEW ORLEANS,LA,70118,504-394-1005,"0138 - GROCERY & RELATED PRDCTS WHLSRS, OTH",CAJUN MOON PRODUCTS
-90.10015318576761,29.950842617180182,84914,CAJUN SEAFOOD,2730 S BROAD ST,,NEW ORLEANS,LA,70125,504-822-6185,1104 - FISH & SEAFOOD MARKETS,"TIEN & TUYET, INC"
-89.977623506389918,30.038508558210321,84915,CAJUN SEAFOOD #4,7020 READ BLVD,,NEW ORLEANS,LA,70127,504-241-1396,1106 - GROCERY (EXC CONVENIENCE) STORES,"CAJUN SEAFOOD #4,LLC"
-90.047344914076248,29.97726284194821,84916,CAJUN SEAFOOD 2,1901 ALMONASTER AVE,,NEW ORLEANS,LA,70117,504-945-5447,1101 - CONVENIENCE STORES,RACHEL SEAFOOD INC
-90.077168218629623,29.967326700352007,84917,CAJUN WILLS,2127 ORLEANS AVE,,NEW ORLEANS,LA,70116,504-821-6386,1106 - GROCERY (EXC CONVENIENCE) STORES,CAJUN ORLEANS LLC
-90.08774928796953,29.965515303894353,84918,CANAL MART &  EATERY,2700 CANAL ST,A,NEW ORLEANS,LA,70119,504-821-7730,1101 - CONVENIENCE STORES,VIENNE ENTERPRISE LLC
-90.059885189399651,30.01230780902668,84919,CANSECO'S ELYSIAN FIELDS,5217 ELYSIAN FIELDS AVE,,NEW ORLEANS,LA,70122,504-304-9805,1106 - GROCERY (EXC CONVENIENCE) STORES,"CANSECO'S ELYSIAN FIELDS, LLC"
-90.084498011128048,29.980560028655237,84920,CANSECO'S ESPLANADE MARKET,3135 ESPLANADE AVE,,NEW ORLEANS,LA,70119,504-322-2594,1106 - GROCERY (EXC CONVENIENCE) STORES,CANSECO'S ESPLANADE LLC
-90.100711164959861,29.951430346835366,84921,CAPSTONE 118,4035 WASHINGTON AVE,,NEW ORLEANS,LA,70125,,"0138 - GROCERY & RELATED PRDCTS WHLSRS, OTH",CAPSTONE 118 INC
-90.076989294556824,29.951922709288411,84922,CAPTAIN SAL'S SEAFOOD & CHICKEN,3168 SAINT CLAUDE AVE,,NEW ORLEANS,LA,70117,504-948-9990,1101 - CONVENIENCE STORES,"VU & SONS, LLC"
-89.978913230766096,30.051643477471742,84923,CASTNET,10826 HAYNE BLVD,,NEW ORLEANS,LA,70127,,1104 - FISH & SEAFOOD MARKETS,CASTNET SEAFOOD INC
-90.092276675017828,29.939631140244956,84924,CENTRAL CITY GROCERY #3,2611 WASHINGTON AVE,,NEW ORLEANS,LA,70113,,1101 - CONVENIENCE STORES,"CENTRAL CITY GROCERY #3, INC."
-90.061319655969783,29.958991322030748,84925,CENTRAL GROCERY CO.,923 DECATUR ST,,NEW ORLEANS,LA,70116,504-523-1620,1101 - CONVENIENCE STORES,CENTRAL GROCERY CO. LLC
-89.927411706044026,30.031851359283426,84926,CHEF CHEVRON,13301 CHEF MENTEUR HWY,,NEW ORLEANS,LA,70129,504-254-8984,1101 - CONVENIENCE STORES,"TRAN FAMILY VENTURES, LLC"
-89.959536188256749,30.021036409390035,84927,CHEF DISCOUNT MARKET,10833 CHEF MENTEUR HWY,,NEW ORLEANS,LA,70127,504-329-8179,1106 - GROCERY (EXC CONVENIENCE) STORES,"AMA DISCOUNT, INC"
-89.801162595894027,30.071416277476082,84928,CHEF HARBOR,21135 CHEF MENTEUR HWY,,NEW ORLEANS,LA,70129,504-662-5511,"1111 - SPECIALTY FOOD STORES, ALL OTHER","LOUIS VIAVANT BOAT HARBOVIAVANT, GEORGE L"
-89.79297693425768,30.078731739872811,84929,CHEF PASS SEAFOOD,21659 CHEF MENTEUR HWY,,NEW ORLEANS,LA,70129,,0135 - FISH & SEAFOOD WHLSRS,"JOHN JULIAN ,JR"
-90.118076017761965,29.92150574456759,84930,CHEZ NOUS CHARCUTERIE,5701 MAGAZINE ST,,NEW ORLEANS,LA,70115,,"1111 - SPECIALTY FOOD STORES, ALL OTHER",CHEZ NOUS CHARCUTERIE IN
-90.084936422734117,29.938633540830242,84931,CHICKEN MART,2200 SIMON BOLIVAR AVE,,NEW ORLEANS,LA,70113,504-522-8893,1103 - MEAT MARKETS,"CHICKEN MART, INC"
-90.015453644772379,29.961378293958774,84932,CHICKEN MART II,5601 ST CLAUDE AVE,,NEW ORLEANS,LA,70117,,1103 - MEAT MARKETS,CHICKEN MART II LLC
-90.070068409210833,29.929768744100272,84933,CHIPPEWA FOOD STORE,1684 CHIPPEWA ST,,NEW ORLEANS,LA,70130,,1101 - CONVENIENCE STORES,"ESMAIL, ASAD"
-90.114343609187586,30.004993607679932,84934,CHRIS' SPECIALITY MEATS,6251 WEST END BLVD,,NEW ORLEANS,LA,70124,,1106 - GROCERY (EXC CONVENIENCE) STORES,"CHRIS' SPECIALITY MEATS, INC"
-90.065463541054868,29.972045529598766,84935,CIRCLE FOOD STORE,1522 ST BERNARD AVE,,NEW ORLEANS,LA,70116,,1106 - GROCERY (EXC CONVENIENCE) STORES,CIRCLE FOOD STORE INC
-90.066368348801205,29.973370699281681,84936,CIRCLE H MEAT MARKET,1600 ST BERNARD AVE,,NEW ORLEANS,LA,70116,,1103 - MEAT MARKETS,LAYLA LLC
-90.073182612543121,29.943511889095394,84937,CIRCLE K #2707672,704 HOWARD AVE,,NEW ORLEANS,LA,70130,504-586-3042,1101 - CONVENIENCE STORES,"CIRCLE K STORES, INC."
-90.109986602005037,29.96522707860758,84938,CIRCLE K #2707673,3725 S CARROLLTON AVE,,NEW ORLEANS,LA,70118,504-486-8377,1101 - CONVENIENCE STORES,"CIRCLE K STORES, INC."
-90.113419520220873,29.946207863373999,84939,CIRCLE K #4906,6229 S CLAIBORNE AVE,,NEW ORLEANS,LA,70125,504-861-9107,1101 - CONVENIENCE STORES,CIRCLE K STORES INC
-90.122885731537551,29.922299081600816,84940,CIRCLE K #8276,6050 MAGAZINE ST,,NEW ORLEANS,LA,70118,504-895-0871,1101 - CONVENIENCE STORES,CIRCLE K STORES INC
-90.077993691532924,29.940600500938519,84941,CK'S  HOT SHOPPE,1433 BARONNE ST,,NEW ORLEANS,LA,70113,504-309-5150,1106 - GROCERY (EXC CONVENIENCE) STORES,"CK'S HOT SHOPPE, LLC"
-90.049021257162551,29.974264440136476,84942,CLAIBORNE SUPERMARKET,2541 N CLAIBORNE AVE,,NEW ORLEANS,LA,70117,504-948-2327,1106 - GROCERY (EXC CONVENIENCE) STORES,"AWNI, INC"
-90.076989294556824,29.951922709288411,84943,CLEO CUISINE CONVENIENCE,165 UNIVERSITY PL,,NEW ORLEANS,LA,70112,504-522-4504,1101 - CONVENIENCE STORES,YOUSSEF ENTERPRISES LLC
-90.075283254368557,29.966046716484293,84944,COMMUNITY 6 GROCERY,1921 ORLEANS AVE,,NEW ORLEANS,LA,70116,504-821-7966,1106 - GROCERY (EXC CONVENIENCE) STORES,"COMMUNITY 6 GROCERY, LLC"
-90.066874548671336,29.956787331183619,84945,COMPAC FOOD & GENERAL STORE,730 ST LOUIS ST,,NEW ORLEANS,LA,70130,,1106 - GROCERY (EXC CONVENIENCE) STORES,"HINA ENTERPRISES, INC"
-90.066874548671336,29.956787331183619,84946,COMPAC FOOD & GENERAL STORE,730 ST LOUIS ST,SUITE B,NEW ORLEANS,LA,70130,,1106 - GROCERY (EXC CONVENIENCE) STORES,"HINA ENTERPRISES, INC"
-90.076989294556824,29.951922709288411,84947,COMPAK FOOD & DELI,501 DAUPHINE ST,,NEW ORLEANS,LA,70130,504-525-2311,1101 - CONVENIENCE STORES,"DURGA ENTERPRISES, INC"
-90.110647659927153,29.967936655127982,84948,COSTCO WHOLESALE 1147,3900 DUBLIN ST,,NEW ORLEANS,LA,70118,425-313-8100,"1111 - SPECIALTY FOOD STORES, ALL OTHER",COSTCO WHOLESALE CORPORATION
-90.076989294556824,29.951922709288411,84949,COURT LIQUORS,618-620 BOURBON ST,,NEW ORLEANS,LA,70130,504-581-5804,1101 - CONVENIENCE STORES,"JOS FEIN CATERERS, INC"
-90.124214245798271,29.967202643520693,84950,COYE FOOD STORE,9103 FIG ST,,NEW ORLEANS,LA,70118,504-828-7921,1101 - CONVENIENCE STORES,JUDEH SUHAD
-90.097981138239135,29.978399614138013,84951,CREOLE COUNTRY INC,512 DAVID ST,,NEW ORLEANS,LA,70119,,1103 - MEAT MARKETS,CREOLE COUNTRY INC
-90.051633753538894,29.979973545368033,84952,CREOLE LUNCHBOX,2440 N MIRO ST,,NEW ORLEANS,LA,70117,,1106 - GROCERY (EXC CONVENIENCE) STORES,"LV SERVICES, LLC"
-90.068562777066404,29.953152671904807,84953,CREOLE SUPERSTORE,623 CANAL ST,,NEW ORLEANS,LA,70130,504-586-0703,1101 - CONVENIENCE STORES,MAGNOLIA ENTERPRISES INC
-90.063293825976814,29.94773526893049,84954,CRESCENT CITY MARKETPLACE,2 POYDRAS ST,,NEW ORLEANS,LA,70130,,1106 - GROCERY (EXC CONVENIENCE) STORES,HILTON MANAGEMENT LLC
-89.992314528295324,30.028475642790102,84955,CROWDER CENTER,5769 CROWDER BLVD,,NEW ORLEANS,LA,70127,504-241-6555,1101 - CONVENIENCE STORES,DALYA LLC
-90.111615163557303,29.956464461435765,84956,CTN GROCERY,2931 BROADWAY ST,,NEW ORLEANS,LA,70125,,1101 - CONVENIENCE STORES,HENRIETTE KAMBI
-90.104009745867984,29.940545167696342,84957,CVS/ PHARMACY # 167,4401 S CLAIBORNE AVE,,NEW ORLEANS,LA,70125,401-765-1500,1101 - CONVENIENCE STORES,"LOUISIANA CVS PHARMACY, L.L.C."
-90.070673344235161,29.984927088371741,84958,D & M DISCOUNT STORE,2037 N BROAD ST,,NEW ORLEANS,LA,70119,504-235-3478,1106 - GROCERY (EXC CONVENIENCE) STORES,K & O BROTHERS LLC
-90.079161074225581,29.944684686487669,84959,DANNY FOOD STORE,2000 EARHART BLVD,A,NEW ORLEANS,LA,70113,504-680-0135,1101 - CONVENIENCE STORES,"STEVEN CAO TRAN, INC."
-90.057212000721762,29.97881429230581,84960,DANNY FOOD STORE,2101 ELYSIAN FIELDS AVE,,NEW ORLEANS,LA,70117,,1106 - GROCERY (EXC CONVENIENCE) STORES,"DANG ENTERPRISE , INC."
-90.067049441457954,29.974737015023123,84961,DANNY'S PACKAGE LIQUOR &      SEAFOOD MKT,1812 ONZAGA ST,,NEW ORLEANS,LA,70116,504-949-8666,1101 - CONVENIENCE STORES,P & N ENTERPRISES INC
-90.076989294556824,29.951922709288411,84962,DAP MINISTRIES OUTLET,1234 PRESS DR,,NEW ORLEANS,LA,70117-7247,,"1501 - DURABLE GOODS WHLSRS, OTHER MISC","WILLIAMS, WILLIE JR"
-90.025441724897689,29.927311712994332,84963,DAT'S CAJUN SEAFOOD,3020 GENERAL DE GAULLE DR,,NEW ORLEANS,LA,70114,504-362-8252,1104 - FISH & SEAFOOD MARKETS,"DAT'S CAJUN SEAFOOD, LLC"
-90.072943337957582,29.932296282306449,84964,DAT'S GROCERY,1600 MAGAZINE ST,,NEW ORLEANS,LA,70130-4726,504-529-2671,1101 - CONVENIENCE STORES,DAT'S GROCERY INC
-90.034917792074552,30.001839081851603,84965,DAY & NIGHT DISCOUNT,4039 LOUISA ST,B,NEW ORLEANS,LA,70126,,1101 - CONVENIENCE STORES,BINH VAN CORPORATION
-90.068507240881772,29.952461576963991,84966,DEEP SOUTH TRADING CO,600 CANAL ST,,NEW ORLEANS,LA,70130,504-586-8753,1101 - CONVENIENCE STORES,DEEP SOUTH GROCERY CO   INC
-90.089290585975434,29.946442822093395,84967,DISCOUNT CITY,2013 S CLAIBORNE AVE,D,NEW ORLEANS,LA,70125,,1101 - CONVENIENCE STORES,T & HO LLC
-90.126049679721561,29.960795598781555,84968,DISCOUNT CORNER,8733 S CLAIBORNE AVE,,NEW ORLEANS,LA,70118,504-864-0057,1101 - CONVENIENCE STORES,ARIYAN INC
-90.072379747629284,29.97176510801167,84969,DISCOUNT EXPRESS,2000 ESPLANADE AVE,,NEW ORLEANS,LA,70116,504-433-8600,1101 - CONVENIENCE STORES,2 NY FASHIONS INC
-90.067111730329884,29.952157164805758,84970,DIXIE MARKET,501 CANAL ST,,NEW ORLEANS,LA,70130,504-586-8753,1101 - CONVENIENCE STORES,DEEP SOUTH GROCERY CO   INC
-90.131284379849546,29.956317025151908,84971,DON'S FOOD  MART,1730 EAGLE ST,,NEW ORLEANS,LA,70118,,1101 - CONVENIENCE STORES,"DON'S FOOD MART, LLC"
-90.021260380170588,30.01823003509281,84972,DOWNMAN SUPERMARKET,4827 DOWNMAN RD,,NEW ORLEANS,LA,70126,504-242-2882,1101 - CONVENIENCE STORES,FADI INC
-89.993340605920579,30.013670841069025,84973,EAST SIDE CASH & CARRY INC,7943 CHEF MENTEUR HWY,,NEW ORLEANS,LA,70126,504-243-9797,1101 - CONVENIENCE STORES,"EAST SIDE CASH & CARRY,"
-89.963349587694253,30.048268165909192,84974,EASTOVER MARKET,7050 BULLARD AVE,,NEW ORLEANS,LA,70128,504-244-0741,1106 - GROCERY (EXC CONVENIENCE) STORES,SARA GROCERY INC
-89.921042252337259,30.033686221452363,84975,EL CATRACHO LLC,13801 CHEF MENTEUR HWY,#A,NEW ORLEANS,LA,70129,,1101 - CONVENIENCE STORES,EL CATRACHO LLC
-89.912345926587079,30.037705543060984,84976,EL TIO SUPERMARKET,4664 ALCEE FORTIER BLVD,,NEW ORLEANS,LA,70129,,1106 - GROCERY (EXC CONVENIENCE) STORES,EL TIO SUPERMARKET
-90.061834922164834,30.023425087105942,84977,ELYSIAN FIELDS SHELL,6300 ELYSIAN FIELDS AVE,,NEW ORLEANS,LA,70122,504-884-8766,1101 - CONVENIENCE STORES,"M & S  OIL SERVICES, L.L.C."
-90.061506984557994,29.964690060341674,84978,ESPLANADE MINI MART,839 ESPLANADE AVE,,NEW ORLEANS,LA,70116,504-329-8179,1101 - CONVENIENCE STORES,ALLAN'S GROCERY LLC
-90.024856015032427,29.928114644834331,84979,EVERGREEN SUPERMARKET,3011 SANDRA DR,,NEW ORLEANS,LA,70114,504-368-1581,1101 - CONVENIENCE STORES,MALAK 2000 INC
-90.076582892185272,29.985725798201496,84980,FAIR ZONE FOOD STORE 2,1825 GENTILLY BLVD,,NEW ORLEANS,LA,70119,504-461-6175,1101 - CONVENIENCE STORES,FAIR ZONE FOOD STORE 2 LLC
-90.048015746051064,29.977085858424648,84981,FAME CONVENIENT STORE,1842 ALMONASTER AVE,,NEW ORLEANS,LA,70117,504-304-3223,1101 - CONVENIENCE STORES,"STEWART MANAGMENT, LLC"
-90.092992982990324,29.931916183707916,84982,FAMILY DISCOUNT STORE,1935 LOUISIANA AVE,,NEW ORLEANS,LA,70115,504-895-4272,1101 - CONVENIENCE STORES,FAMILY DISCOUNT STORE INC
-89.969502779322909,30.056934983701762,84983,FAMILY RANCH MARKET,11950 HAYNE BLVD,,NEW ORLEANS,LA,70128,504-243-1944,1106 - GROCERY (EXC CONVENIENCE) STORES,"RANCH, INC"
-90.020506223399892,29.962674429416719,84984,FAMILY STOP,5131 ST CLAUDE AVE,,NEW ORLEANS,LA,70117,,1106 - GROCERY (EXC CONVENIENCE) STORES,"FAMILY STOP, LLC"
-90.100564500452847,29.951143569012451,84985,FAST STOP,2745 S BROAD ST,,NEW ORLEANS,LA,70125,,1106 - GROCERY (EXC CONVENIENCE) STORES,MONA REALTY LLC
-90.02459528596772,30.025278143097779,84986,FAST STOP,7200 DOWNMAN RD,,NEW ORLEANS,LA,70126,,1101 - CONVENIENCE STORES,"FAST STOP OF DOWNMAN,LLC"
-90.128047904994332,29.940828422897333,84987,FAVORI,7507 MAPLE ST,,NEW ORLEANS,LA,70118,504-866-8140,1101 - CONVENIENCE STORES,ANNAM INC
-90.014875401180916,30.010130317940568,84988,FOOD PLUS,6232 CHEF MENTEUR HWY,UNIT A,NEW ORLEANS,LA,70126,504-246-2628,1106 - GROCERY (EXC CONVENIENCE) STORES,SHIVAS LLC
-90.042603784028969,29.963946443833905,84989,FRADY'S ONE STOP FOOD STORE,3231 DAUPHINE ST,,NEW ORLEANS,LA,70117,,1101 - CONVENIENCE STORES,"FRADY, JOSEPH M"
-90.076989294556824,29.951922709288411,84990,FRANCE MEAT MARKET,1339 FRANCE ST,,NEW ORLEANS,LA,70117,504-949-2407,1103 - MEAT MARKETS,SIX BROTHERS LLC
-90.052188658839924,30.021716208786614,84991,FRANKLIN DISCOUNT,6100 FRANKLIN AVE,,NEW ORLEANS,LA,70122,,1106 - GROCERY (EXC CONVENIENCE) STORES,MALAK INC
-90.073399463626771,29.961144757696495,84992,FRENCH QUATER FOOD MART,1534 SAINT LOUIS ST,A,NEW ORLEANS,LA,70112,,1101 - CONVENIENCE STORES,FRENCH QUATER FOOD MART
-90.09016190184272,29.937801891840898,84993,FRIENDLY SUPERMARKET,2704 LA SALLE ST,,NEW ORLEANS,LA,70113,,1101 - CONVENIENCE STORES,JENNEFER TRAN INC
-90.035956879636004,30.005138918370324,84994,FUEL ZONE,4500 CHEF MENTEUR HWY,,NEW ORLEANS,LA,70126,,1101 - CONVENIENCE STORES,FUEL ZONE LLC
-90.081459054930306,29.962423706075093,84995,GALVEZ FOOD STORE,120 N GALVEZ ST,,NEW ORLEANS,LA,70119,504-304-6035,1106 - GROCERY (EXC CONVENIENCE) STORES,"GALVEZ FOOD STORE, INC."
-90.012855752183384,29.971371185868861,84996,GALVEZ GOODIES,2036 CAFFIN AVE,,NEW ORLEANS,LA,70117,504-319-5886,1106 - GROCERY (EXC CONVENIENCE) STORES,BURNELL COTLON
-89.986344714932969,30.015720295648524,84997,GAWAIN MARKET,4418 GAWAIN DR,,NEW ORLEANS,LA,70127,504-246-3130,1101 - CONVENIENCE STORES,"LE, NGUYET-NGA NHU"
-90.076989294556824,29.951922709288411,84998,GENTILLY FOOD MART,1629 GENTILLY BLVD,,NEW ORLEANS,LA,70119,504-453-8407,1106 - GROCERY (EXC CONVENIENCE) STORES,GENTILLY FOOD MART INC
-90.076688850127283,29.962241854080606,84999,GLORIA'S GROCERY,1800 CONTI ST,,NEW ORLEANS,LA,70112,,1101 - CONVENIENCE STORES,"HILLIARD, GLORIA"
-90.084739222524973,29.968093863638561,85000,GOLDEN EXPRESS,400 N BROAD ST,,NEW ORLEANS,LA,70119,,1106 - GROCERY (EXC CONVENIENCE) STORES,"TCL FAMILY,LLC"
-90.084739222524973,29.968093863638561,85001,GOLDEN EXPRESS,400 N BROAD ST,,NEW ORLEANS,LA,70119,,1106 - GROCERY (EXC CONVENIENCE) STORES,"TONY LO,LLC"
-90.011635630952128,29.962079297209765,85002,GORDON CONVENIENCE STORE,1242 GORDON ST,,NEW ORLEANS,LA,70117,,1101 - CONVENIENCE STORES,OLIVER BUTLER
-90.076989294556824,29.951922709288411,85003,GRACIOUS,2854 SAINT CHARLES AVE,,NEW ORLEANS,LA,70115,,1106 - GROCERY (EXC CONVENIENCE) STORES,"NERON ENTERPRISES , LLC"
-90.054762599341387,29.96302630510019,85004,GRANDE KREWE,511 MARIGNY ST,,NEW ORLEANS,LA,70117,,"1110 - BEER, WINE & LIQUOR STORES","TWO HOT CHICKS AND TWO GUYS, LLC"
-90.027997819027078,30.0302503762565,85005,GULF COAST BLENDERS INC,7801 TOWNSEND PL,,NEW ORLEANS,LA,70126-1115,504-891-7038,"0138 - GROCERY & RELATED PRDCTS WHLSRS, OTH","GULF COAST BLENDERS, INC"
-90.112623134570669,29.920581379950018,85006,GUY'S FOOD STORE,5259 MAGAZINE ST,,NEW ORLEANS,LA,70115-1851,504-891-5025,1101 - CONVENIENCE STORES,"MATHERNE JR, MARVIN"
-89.989086563838953,30.046582936260762,85007,HABIBI GROCERY,9530 HAYNE BLVD,,NEW ORLEANS,LA,70127,504-220-8250,1101 - CONVENIENCE STORES,HABIBI GROCERY L.L.C.
-90.078269493959596,29.998946403644222,85008,HANDY DISCOUNT,4101 JUMONVILLE ST,,NEW ORLEANS,LA,70122,504-282-9667,1106 - GROCERY (EXC CONVENIENCE) STORES,HANDY DISCOUNT INC
-90.075488832887601,29.949935750897044,85009,HANDY PIK,1100 POYDRAS ST,110,NEW ORLEANS,LA,70163,504-582-2295,1101 - CONVENIENCE STORES,HANDY PIK INC
-90.040697119623289,29.966664978922246,85010,HANK'S MEAT MARKET,3340 ST CLAUDE AVE,,NEW ORLEANS,LA,70117,504-943-0848,1106 - GROCERY (EXC CONVENIENCE) STORES,"THANG BINH, INC"
-90.049471655739183,29.968554033946887,85011,HANK'S SEAFOOD & SUPERMARKET,2634 ST CLAUDE AVE,,NEW ORLEANS,LA,70117,504-247-3731,1101 - CONVENIENCE STORES,"YOUSEF ODEH, LLC"
-90.050732387104517,30.012533005226974,85012,HAPPY DISCOUNT,5301 FRANKLIN AVE,,NEW ORLEANS,LA,70122,,1105 - FULL SVC RESTAURANTS (TABLE SERVICE),MARAH LLC
-90.117609652576533,30.005467127041726,85013,HARRISON MARKET AND DELI,206 W HARRISON AVE,C & D,NEW ORLEANS,LA,70124,,1101 - CONVENIENCE STORES,"HARRISON MARKET, LLC"
-90.117609652576533,30.005467127041726,85014,HARRISON MARKET AND DELI,206 W HARRISON AVE,C&D,NEW ORLEANS,LA,70124,,1101 - CONVENIENCE STORES,HARRISON MARKET LLC
-90.021155486715742,30.034317301372642,85015,HAYNE SUPERMARKET,6318 HAYNE BLVD,,NEW ORLEANS,LA,70126,504-244-9739,1106 - GROCERY (EXC CONVENIENCE) STORES,ASEL INC
-90.018718379912471,29.961663778086574,85016,HOLMES ONE STOP MARKET PLACE,5340 ST CLAUDE AVE,,NEW ORLEANS,LA,70117,504-309-8560,1101 - CONVENIENCE STORES,HOLMES ONE STOP MARKET PINC
-90.086452516052205,29.943962410888474,85017,HOOD LOVE DELI,1802 MAGNOLIA ST,,NEW ORLEANS,LA,70130,504 264-7100,1103 - MEAT MARKETS,HOOD LOVE DELI
-90.099760439501139,29.958456034923618,85018,"HUEY LONG FOODS, LLC",4333 EUPHROSINE ST,,NEW ORLEANS,LA,70125,,"1111 - SPECIALTY FOOD STORES, ALL OTHER","HUEY LONG FOODS, LLC"
-90.08857256585506,29.963900282876217,85019,IDEAL DISCOUNT SUPERMARKET,250 S BROAD ST,,NEW ORLEANS,LA,70119,504-822-4232,1106 - GROCERY (EXC CONVENIENCE) STORES,250 S BROAD INC
-90.077623655818542,29.971849968659551,85020,IDEAL SUPER MARKET,2436 URSULINES AVE,,NEW ORLEANS,LA,70119,504-821-9339,1106 - GROCERY (EXC CONVENIENCE) STORES,KAKI INC
-90.09039537550791,29.958770739886447,85021,INLAND SEAFOOD,2527 PERDIDO ST,,NEW ORLEANS,LA,70119,504-821-4500,0135 - FISH & SEAFOOD WHLSRS,"MILAND SEAFOOD, INC"
-90.121798454336869,29.9648683603324,85022,J & P SUPERETTE,2941 EAGLE ST,,NEW ORLEANS,LA,70118,,1106 - GROCERY (EXC CONVENIENCE) STORES,"ABJ & R GROCERY,LLC"
-90.076989294556824,29.951922709288411,85023,J C DELI,65 FRENCH MARKET PL,,NEW ORLEANS,LA,70116,504-522-2961,1101 - CONVENIENCE STORES,"KIM, YOUNG DUK"
-90.070395932673307,29.965560527213981,85024,J C FOOD MARKET,1532 ST PHILIP ST,,NEW ORLEANS,LA,70116,504-221-8270,1105 - FULL SVC RESTAURANTS (TABLE SERVICE),LABAN FOOD INC
-90.078678605528893,29.942374717288715,85025,JACK & JAKES,1307 ORETHA CASTLE HALEY BLVD,200,NEW ORLEANS,LA,70113,,1106 - GROCERY (EXC CONVENIENCE) STORES,"JACK & JAKES PUBLIC MARKET,LLC"
-90.078678605528893,29.942374717288715,85026,JACK AND JAKE'S PUBLIC MARKET,1307 ORETHA CASTLE HALEY BLVD,200,NEW ORLEANS,LA,70113,,1106 - GROCERY (EXC CONVENIENCE) STORES,JACK AND JAKE'S INC
-90.054985111701413,29.974855139885225,85027,JACK MEAT MARKET,2279 N DERBIGNY ST,,NEW ORLEANS,LA,70117,504-780-8401,1101 - CONVENIENCE STORES,JACK MEAT MARKET INC.
-90.089237394850869,29.94431967640131,85028,JACKSON FOOD STORE,2801 JACKSON AVE,,NEW ORLEANS,LA,70113,,1106 - GROCERY (EXC CONVENIENCE) STORES,JACKSON FOOD STORE
-90.076440640471802,29.929661233978862,85029,JEWEL'S FOOD STORE,2136 MAGAZINE ST,,NEW ORLEANS,LA,70130,504-524-9355,1101 - CONVENIENCE STORES,"O D S, LLC"
-90.034384064297356,29.962089842565618,85030,JIMMY'S GROCERY & MEAT MKT,4201 DAUPHINE ST,,NEW ORLEANS,LA,70117,504-949-0000,1101 - CONVENIENCE STORES,SHARIFF & NADDER INC
-90.089232387221685,29.974850454541837,85031,JOHN & MARY FOOD STORE,3238 ORLEANS AVE,,NEW ORLEANS,LA,70119-3917,504-482-1144,1101 - CONVENIENCE STORES,JOHN & MARY INC
-90.052648385377495,29.946975923921229,85032,JOHN'S SEAFOOD,825 TECHE ST,,NEW ORLEANS,LA,70114-4339,504-340-1717,1104 - FISH & SEAFOOD MARKETS,"ANDONIE, MIGUEL         ANDONIE, MARIA"
-90.133750108901836,29.950718202178919,85033,JSK DISCOUNT,8539 OAK ST,STE #A,NEW ORLEANS,LA,70118,,1106 - GROCERY (EXC CONVENIENCE) STORES,"AMEERA AB,LLC"
-89.991753300367762,29.905251214389967,85034,JULIAN FOOD STORE,4500 WOODLAND DR,,NEW ORLEANS,LA,70131,,1101 - CONVENIENCE STORES,"JULIAN FOOD STORE,LLC"
-90.0997182123415,29.940895179154371,85035,K & T COMMUNITY,3733 S CLAIBORNE AVE,,NEW ORLEANS,LA,70125,504-822-8915,1101 - CONVENIENCE STORES,K & T COMMUNITY INC.
-90.096386141976467,29.964069789550766,85036,K & T FOOD STORE,3204 TULANE AVE,,NEW ORLEANS,LA,70119,,1101 - CONVENIENCE STORES,"K & T FOOD STORE, INC"
-90.086452516052205,29.943962410888474,85037,KELLER MARKET FOOD STORE,1802 MAGNOLIA ST,,NEW ORLEANS,LA,70113,504-523-8648,1101 - CONVENIENCE STORES,GENGO MICHAEL A
-90.069826984888437,29.979516694235432,85038,KEV'S CONVENIENCE STORE,2300 ST BERNARD AVE,,NEW ORLEANS,LA,70127,,1101 - CONVENIENCE STORES,KEV'S CONVENIENCE STORE LLC
-90.096193440051152,29.937240477046604,85039,KEY FOOD STORE,2600 LOUISIANA AVE,,NEW ORLEANS,LA,70115,504-897-6514,1101 - CONVENIENCE STORES,MAZIN INC
-90.076989294556824,29.951922709288411,85040,KING SUPERMARKET,1135 SAINT BERNARD AVE,,NEW ORLEANS,LA,70116,504-782-7639,1106 - GROCERY (EXC CONVENIENCE) STORES,"MLT ENTERPRISES,INC"
-90.100564500452847,29.951143569012451,85041,KINGS MEAT MARKET & GROCERY,2745 S BROAD ST,,NEW ORLEANS,LA,70125,504-254-3178,1101 - CONVENIENCE STORES,KING VISION INC
-89.972447036932849,30.046485561515691,85042,KWIK PIK,11040 MORRISON RD,,NEW ORLEANS,LA,70127,504-606-2833,1101 - CONVENIENCE STORES,"ND GROUP ENTERPRISES, IN"
-90.076989294556824,29.951922709288411,85043,LA FAVORITA MARKET,3640 GENERAL DE GAULLE DR,,NEW ORLEANS,LA,70114,504-217-1184,1101 - CONVENIENCE STORES,ATILANO LOPEZ LUIS
-89.989427025353407,30.02445032761629,85044,LA FOOD,5200 CROWDER BLVD,,NEW ORLEANS,LA,70127,504-638-1350,1101 - CONVENIENCE STORES,LA FOOD INC
-90.066684402036685,29.947361153343316,85045,LAFAYETTE MINI MART,322 LAFAYETTE ST,,NEW ORLEANS,LA,70130,504-522-1710,1101 - CONVENIENCE STORES,"LAFAYETTE MINI MART, LLC"
-90.076989294556824,29.951922709288411,85046,"LAKESHORE MARINE & FUEL, LLC",7840 LAKESHORE DR,,NEW ORLEANS,LA,70124,504-723-3717,1101 - CONVENIENCE STORES,"LAKESHORE MARINE & FUEL, LLC"
-90.10541963639281,30.005017634301009,85047,LAKEVIEW GROCERY,801 HARRISON AVE,,NEW ORLEANS,LA,70124,504-207-0162,1106 - GROCERY (EXC CONVENIENCE) STORES,"HARRISON FRESH MARKET, LLC"
-90.117321255614172,30.00589074771467,85048,LAKEVIEW MINI MART,207 W HARRISON AVE,,NEW ORLEANS,LA,70124,504-872-0522,1101 - CONVENIENCE STORES,"TWO-O-SEVEN, LLC"
-90.062963511271548,29.970084731391481,85049,LARRY & LARRY GROCERY,1340 ANNETTE ST,,NEW ORLEANS,LA,70116,,1101 - CONVENIENCE STORES,"CANGELOSI JR, LAWRENCE"
-89.92913475022435,30.032235400639998,85050,LATINOS MARKET,13235 CHEF MENTEUR HWY,STE D2,NEW ORLEANS,LA,70129,,1106 - GROCERY (EXC CONVENIENCE) STORES,"LATINOS MARKET, LLC"
-90.077682298640525,29.976371599768143,85051,LAVA SUPERMARKET,1410 N BROAD ST,,NEW ORLEANS,LA,70119,,1106 - GROCERY (EXC CONVENIENCE) STORES,"LAVA SUPERMARKET, INC"
-90.040075931899764,29.944971979582601,85052,LAWSON'S GROCERY & DELI,1625 NEWTON ST,,NEW ORLEANS,LA,70114-2604,504-368-4958,1101 - CONVENIENCE STORES,LAWSONS GROCERY & DELI  INC
-90.049049266240701,29.972130217254563,85053,LB SAINTS FOOD STORE,2601 N VILLERE ST,,NEW ORLEANS,LA,70117,504-945-7799,1101 - CONVENIENCE STORES,LB SAINTS FOOD STORE CORP.
-90.034488229445572,29.992567882867739,85054,LOUISA MINI MART,3423 LOUISA ST,,NEW ORLEANS,LA,70126,504-392-5513,1101 - CONVENIENCE STORES,SHAED LLC
-90.076989294556824,29.951922709288411,85055,LOUISIANA CAVIAR CO.,829 SAINT CHARLES AVE,,NEW ORLEANS,LA,70130,,0135 - FISH & SEAFOOD WHLSRS,TRIPLE A CAVIAR L.L.C.
-90.135711143473856,29.951537074803607,85056,LOUISIANA FFR,1157 EAGLE ST,,NEW ORLEANS,LA,70118,769-234-8625,0136 - MEAT & MEAT PRODUCT WHLSRS,"LOUISIANA FFR, LLC"
-90.09422429210521,29.933558016895589,85057,LOUISIANA MEAT MARKET,2136 LOUISIANA AVE,,NEW ORLEANS,LA,70115,504-259-3651,1101 - CONVENIENCE STORES,LOUISIANA MEAT LLC
-90.091631734139128,29.92916918297869,85058,LOUISIANA SUPER SAVER,1641 LOUISIANA AVE,A,NEW ORLEANS,LA,70115,504-891-6670,1106 - GROCERY (EXC CONVENIENCE) STORES,"AMERA,INC"
-90.072867461409913,29.992863924588995,85059,LUCY'S SUPERMARKET,3443 PARIS AVE,,NEW ORLEANS,LA,70122,,1106 - GROCERY (EXC CONVENIENCE) STORES,TIEN VIET VU
-90.087753150926886,29.924002275098037,85060,"LWIN FAMILY CO, LLC",3233 MAGAZINE ST,,NEW ORLEANS,LA,70115,,0135 - FISH & SEAFOOD WHLSRS,LWIN FAMILY CO
-89.912066147198985,30.039183783685559,85061,LY'S SUPERMARKET,14401 PELTIER DR,130,NEW ORLEANS,LA,70129,504-254-4380,1101 - CONVENIENCE STORES,THU HUONG INC
-90.076989294556824,29.951922709288411,85062,M & K MEAT MARKET,1330 ODEON AVE,,NEW ORLEANS,LA,70114,973-248-7786,1103 - MEAT MARKETS,M & K MEAT MARKET INC
-90.11670470498855,29.926626736055937,85063,M LANGENSTEIN & SONS INC,1330 ARABELLA ST,,NEW ORLEANS,LA,70115-4205,504-899-5001,1105 - FULL SVC RESTAURANTS (TABLE SERVICE),M LANGENSTEIN & SONS INC
-90.076989294556824,29.951922709288411,85064,M N M,2440 N MIRO,,NEW ORLEANS,LA,70119,,1106 - GROCERY (EXC CONVENIENCE) STORES,M N M
-90.074652351855718,29.930853531636231,85065,MAGAZINE DISCOUNT MARKET,2000 MAGAZINE ST,,NEW ORLEANS,LA,70130-5018,504-348-7617,1101 - CONVENIENCE STORES,BAO CORP
-90.081336610690116,29.972096466227541,85066,MAGNOLIA MEAT MARKET,900 N BROAD ST,,NEW ORLEANS,LA,70119,504-827-1281,1106 - GROCERY (EXC CONVENIENCE) STORES,FRANK'S DISCOUNT LLC
-90.088267302362297,29.942792436571519,85067,MAGNOLIA SUPERMARKET,2201 MAGNOLIA ST,,NEW ORLEANS,LA,70113,504-523-0017,1101 - CONVENIENCE STORES,"JAOUMARI, INC"
-90.008742662016061,29.964337231060796,85068,MAGNOLIA SUPERMARKET,6100 N CLAIBORNE AVE,,NEW ORLEANS,LA,70117,504-628-6781,1101 - CONVENIENCE STORES,ALZARA INC
-90.033606593076627,29.965625338999537,85069,MAGNOLIA SUPERMARKET # 3,4131 ST CLAUDE AVE,,NEW ORLEANS,LA,70117-5336,504-948-2224,1101 - CONVENIENCE STORES,"ALLADDIN ENTERPRISES, INC."
-90.046917508466095,29.981273777034488,85070,MAMA'S COOKING,2722 N TONTI ST,,NEW ORLEANS,LA,70117,,1101 - CONVENIENCE STORES,VIEN MAN INC
-90.06865988211463,29.969892541770328,85071,MAN CHU FOOD STORE & CHINESE  FOOD,1413 N CLAIBORNE AVE,,NEW ORLEANS,LA,70116,504-947-5507,1101 - CONVENIENCE STORES,TSY CORPORATION
-90.05035099105983,29.964501341675003,85072,MARDI GRAS ZONE GROCERY,2706 ROYAL ST,,NEW ORLEANS,LA,70117,504-647-8787,1106 - GROCERY (EXC CONVENIENCE) STORES,MARDI GRAS ZONE LLC
-90.096759500935576,29.929135085263347,85073,MARTIN WINE CELLAR,3827 BARONNE ST,,NEW ORLEANS,LA,70115,504-897-0191,1101 - CONVENIENCE STORES,"DAVID Y. MARTIN JR., LLC"
-90.06441023941899,29.961856618407865,85074,MATASSA'S MARKET,1001 DAUPHINE ST,,NEW ORLEANS,LA,70116,504-412-8700,1101 - CONVENIENCE STORES,TEN-O-ONE CORPORATION
-89.927778207905661,30.032576046552911,85075,MATT'S GROCERY & DELI,4655 MICHOUD BLVD,D4,NEW ORLEANS,LA,70129,504-254-3361,1106 - GROCERY (EXC CONVENIENCE) STORES,JULIE & JONATHAN CORPORATION
-90.123197589995883,29.962114347706223,85076,MCKENZIE FOOD STORE,8638 BELFAST ST,,NEW ORLEANS,LA,70118,504-866-4970,1106 - GROCERY (EXC CONVENIENCE) STORES,"MCKENZIE FOOD STORE,INC"
-90.085413010633317,29.934712988501605,85077,MEGA FOOD STORE,1834 2ND ST,,NEW ORLEANS,LA,70113,504-897-9561,1101 - CONVENIENCE STORES,VU DUY INC
-90.114457594151304,29.973483121524826,85078,"MEL'S FOOD STORE, LLC",4038 GENERAL OGDEN ST,,NEW ORLEANS,LA,70118,504-486-5002,1101 - CONVENIENCE STORES,"MEL'S FOOD STORE, LLC"
-90.071449071823324,29.982083405195311,85079,MID CITY MARKET,2526 ST BERNARD AVE,,NEW ORLEANS,LA,70119,504-324-9273,1104 - FISH & SEAFOOD MARKETS,"MID CITY MARKET,L.L.C."
-90.020639725896643,29.925316567451919,85080,MIKE'S DISCOUNT,3600 MACARTHUR BLVD,B-2,NEW ORLEANS,LA,70114,504-368-1350,1101 - CONVENIENCE STORES,"ZEGAR, INC"
-90.0354169808748,29.965899379564561,85081,MIKE'S FOOD MART,3935 ST CLAUDE AVE,,NEW ORLEANS,LA,70117,225-573-4326,1101 - CONVENIENCE STORES,"NADA M, INC"
-90.037795193698017,29.965978800575229,85082,MIKE'S FOOD STORE,3708 ST CLAUDE AVE,,NEW ORLEANS,LA,70117,504-390-7943,1106 - GROCERY (EXC CONVENIENCE) STORES,MMBS INC.
-89.911706155856081,30.037540629643519,85083,MINH CANH SUPERMARKET,4661 ALCEE FORTIER BLVD,C&D,NEW ORLEANS,LA,70129,,1101 - CONVENIENCE STORES,"H.A.T., INC"
-90.071759816531738,29.988946807239564,85084,MIRACLES TO GO,3040 BRUXELLES ST,,NEW ORLEANS,LA,70119,504-252-8290,1101 - CONVENIENCE STORES,MANIFESTED MIRACLES
-90.07035026110168,29.950865290083915,85085,MOMS MINI MART,327 ST CHARLES AVE,,NEW ORLEANS,LA,70130,504-596-2223,1101 - CONVENIENCE STORES,ABDUL S KHAN
-90.06475939939763,29.941956775948693,85086,N'AWLINS GOODS,901 CONVENTION CENTER BLVD,STE 114,NEW ORLEANS,LA,70130,,1101 - CONVENIENCE STORES,"N'AWLINS GOODS, LLC"
-90.001739059240691,30.011739043564202,85087,NATAL'S SUPERMARKET,7342 CHEF MENTEUR HWY,,NEW ORLEANS,LA,70126,504-362-3911,1101 - CONVENIENCE STORES,"QUYNH NGUYEN, INC."
-90.076989294556824,29.951922709288411,85088,NEIGHBORHOOD DISCOUNT SUPERMARKET,3222 BARONNE ST,,NEW ORLEANS,LA,70115,504-899-4954,1101 - CONVENIENCE STORES,"XUAN TUYEN, INC"
-90.073446046224078,29.970581359801368,85089,NEIGHBORHOOD FOOD MART,2101 GOVERNOR NICHOLLS ST,,NEW ORLEANS,LA,70116,,1106 - GROCERY (EXC CONVENIENCE) STORES,AWAD INC
-90.068486455331566,29.941694279560814,85090,NESBITS JULIA STREET MARKET,925 POEYFARRE ST,,NEW ORLEANS,LA,70130,,1101 - CONVENIENCE STORES,NESBITS JULIA STREET MARKET
-90.072466457336418,29.958093041992065,85091,NEW IMAGE MARKET,1216 BIENVILLE ST,,NEW ORLEANS,LA,70112,,1101 - CONVENIENCE STORES,NEW IMAGE SUPERMARKET IN
-90.097414397774514,29.958594984527895,85092,NEW ORLEANS FISH HOUSE,921 S DUPRE ST,,NEW ORLEANS,LA,70125-1343,504-821-9700,0135 - FISH & SEAFOOD WHLSRS,NEW ORLEANS FISH HOUSECO
-90.097414397774514,29.958594984527895,85093,NEW ORLEANS FISH HOUSE LLC,921 S DUPRE ST,,NEW ORLEANS,LA,70125,504-821-9700,0135 - FISH & SEAFOOD WHLSRS,NEW ORLEANS FISH HOUSE L
-90.076989294556824,29.951922709288411,85094,NEW ORLEANS FOOD CO-OP,2372 ST. CLAUDE AVENUE,STE. 110,NEW ORLEANS,LA,70117,504-324-6849,"0138 - GROCERY & RELATED PRDCTS WHLSRS, OTH",NEW ORLEANS FOOD CO-OP
-90.040495089397496,29.945326564598879,85095,NEWTON CORNER MART,1600 NEWTON ST,,NEW ORLEANS,LA,70114,,1101 - CONVENIENCE STORES,KHP LLC
-90.040495089397496,29.945326564598879,85096,NEWTON CORNER MART,1600 NEWTON ST,,NEW ORLEANS,LA,70114,,1106 - GROCERY (EXC CONVENIENCE) STORES,"KHP,LLC"
-90.04239423996134,29.945398866127839,85097,NEWTON DISCOUNT MARKET,1424 NEWTON ST,,NEW ORLEANS,LA,70114,504-368-3692,1101 - CONVENIENCE STORES,LIEM & TEIN PARTNERSHIP
-90.087191811038821,29.932805949003843,85098,NEXT DOOR GROCERY,2733 BARONNE ST,,NEW ORLEANS,LA,70113,,1101 - CONVENIENCE STORES,"NEXT DOOR GROCERY,LLC"
-90.080712101078234,29.92353088539917,85099,NICK'S SUPERMARKET,746 WASHINGTON AVE,,NEW ORLEANS,LA,70130,504-897-9915,1101 - CONVENIENCE STORES,LILA ENTERPRISES LLC
-90.036329126920776,29.965571407892487,85100,NIKKI FOOD STORE,3900 ST CLAUDE AVE,,NEW ORLEANS,LA,70117,504-945-6655,1106 - GROCERY (EXC CONVENIENCE) STORES,CUONG THAO INC
-90.041588442270125,29.929638574716098,85101,NOLA DISCOUNT FOOD STORE,2204 L B LANDRY AVE,,NEW ORLEANS,LA,70114,,1101 - CONVENIENCE STORES,"NOLA DISCOUNT, INC"
-90.041061519593455,29.945391083732797,85102,NOLA FOOD MART,943 WHITNEY AVE,,NEW ORLEANS,LA,70114,985-856-6088,1101 - CONVENIENCE STORES,"XUAN HUY,LLC"
-90.078348211519398,29.951267900740621,85103,NOLA SUNDRY,1450 POYDRAS ST,STE 120,NEW ORLEANS,LA,70112,504-667-6932,1101 - CONVENIENCE STORES,"NOLA SUNDRY, LLC"
-90.011156761331463,29.959568147023695,85104,NOLA VILLAGE MARKET,6100 ST CLAUDE AVE,,NEW ORLEANS,LA,70117,504-377-0670,1106 - GROCERY (EXC CONVENIENCE) STORES,M & J FOOD STORE INC
-90.088473973178566,29.969339639489665,85105,NORMA'S SWEET BAKERY,2925 BIENVILLE AVE,,NEW ORLEANS,LA,70119,504-309-5401,1106 - GROCERY (EXC CONVENIENCE) STORES,NORMA'S SWEET BAKERY #2 LLC
-90.071674409091216,29.983806257736482,85106,NORTH BROAD SUPERMARKET,1901 N BROAD ST,,NEW ORLEANS,LA,70119,504-945-7369,1106 - GROCERY (EXC CONVENIENCE) STORES,"AAA BUI,INC"
-89.959491208141245,30.045109414721537,85107,NS DISCOUNT EXPRESS,6041 BULLARD AVE,,NEW ORLEANS,LA,70128,,1101 - CONVENIENCE STORES,NS DISCOUNT EXPRESS LLC
-90.060664502353148,29.97297556562582,85108,NT SEAFOOD,1900 N CLAIBORNE AVE,,NEW ORLEANS,LA,70116,,1106 - GROCERY (EXC CONVENIENCE) STORES,"NT SEAFOOD,LLC"
-90.133750108901836,29.950718202178919,85109,OAK SUPER DISCOUNTS,8539 OAK ST,,NEW ORLEANS,LA,70118,504-865-0003,1106 - GROCERY (EXC CONVENIENCE) STORES,OAK SUPER DISCOUNTS INC
-90.119367393437031,29.968523422168438,85110,OLIVE SUPERMARKET,8841 OLIVE ST,,NEW ORLEANS,LA,70118,,1106 - GROCERY (EXC CONVENIENCE) STORES,"OLIVE SUPERMARKET,LLC"
-90.107691684145635,29.976411409416396,85111,OLYMPIA FOOD STORE INC,301 S OLYMPIA ST,,NEW ORLEANS,LA,70119,504-231-4883,1106 - GROCERY (EXC CONVENIENCE) STORES,OLYMPIA FOOD STORE INC
-89.953072170315934,30.067357260738024,85112,OMAR GROCERY,13880 HAYNE BLVD,,NEW ORLEANS,LA,70128,,1101 - CONVENIENCE STORES,"OMAR GROCERY,LLC"
-90.065095800655243,29.950859738940402,85113,OMNI LLC,333 CANAL ST,STE 333,NEW ORLEANS,LA,70130,814-521-9012,1101 - CONVENIENCE STORES,OMNI LLC
-90.050421905135025,29.948514295700694,85114,OPELOUSAS POINT SUPERMARKET,601 OPELOUSAS AVE,,NEW ORLEANS,LA,70114,,1101 - CONVENIENCE STORES,"OPELOUSAS POINT SUPERMARKET, INC"
-90.082886342940355,29.971298506485521,85115,ORLEANS CENTER MARKET,2707 ORLEANS AVE,,NEW ORLEANS,LA,70119,,1101 - CONVENIENCE STORES,ORLEANS CENTER MARKET LLC
-90.084855894090211,29.972345749428779,85116,ORLEANS DISCOUNT,2835 ORLEANS AVE,,NEW ORLEANS,LA,70119,504-486-2769,1101 - CONVENIENCE STORES,MESHAL LLC
-90.079262573450222,29.965102390889538,85117,OVERFLOW MARKET & CAFE,432 N GALVEZ ST,,NEW ORLEANS,LA,70116,,1106 - GROCERY (EXC CONVENIENCE) STORES,OVERFLOW MARKET & CAFE
-90.048338200137323,29.967653513402642,85118,P & A GIFT IMPORT,1021 ST FERDINAND ST,,NEW ORLEANS,LA,70117,504-917-6888,"1501 - DURABLE GOODS WHLSRS, OTHER MISC","P & A GIFT IMPORT, INC."
-90.068895456545249,29.95962519443022,85119,P & J OYSTER CO,1039 TOULOUSE ST,,NEW ORLEANS,LA,70112-3425,504-523-2651,0135 - FISH & SEAFOOD WHLSRS,P & J OYSTER CO
-90.094441584923317,29.965788975348673,85120,PARAISO GROCERY,3128 BANKS ST,,NEW ORLEANS,LA,70119,,1106 - GROCERY (EXC CONVENIENCE) STORES,"SAINT GEORGE,LLC"
-90.07371376586299,29.961238587474611,85121,PAUL PIAZZA & SON INC,1552 ST LOUIS ST,,NEW ORLEANS,LA,70112,504-524-6011,0135 - FISH & SEAFOOD WHLSRS,"PIAZZA SR, VINCENT"
-89.911562189388079,30.037231354085936,85122,PHUOC LOC SUPERMARKET,4635 ALCEE FORTIER BLVD,,NEW ORLEANS,LA,70129-2140,504-239-0558,1106 - GROCERY (EXC CONVENIENCE) STORES,KIM TAI MARKET INC
-90.105440820794172,29.920711051148462,85123,PICK UP & GO FOOD STORE,4713 MAGAZINE ST,,NEW ORLEANS,LA,70115,504-895-3803,1106 - GROCERY (EXC CONVENIENCE) STORES,"PICK UP & GO FOOD STORE, INC"
-90.129463224696693,29.955137610335193,85124,PIGEON TOWN FOOD MART,8601 HICKORY ST,,NEW ORLEANS,LA,70118,,1106 - GROCERY (EXC CONVENIENCE) STORES,PIGEON TOWN FOOD MART LLC
-90.068486455331566,29.941694279560814,85125,POEYFARRE MARKET,925 POEYFARRE ST,,NEW ORLEANS,LA,70130,504-522-5252,1101 - CONVENIENCE STORES,POEYFARRE MARKET LLC
-89.742569856456043,30.146836195095894,85126,POMES SEAFOOD,26064 CHEF MENTEUR HWY,,NEW ORLEANS,LA,70129,504-662-5026,0135 - FISH & SEAFOOD WHLSRS,POMES CHRIS             POMES BERTRAND
-90.038217741155037,29.977338645439243,85127,POPPA'S SEAFOOD & DELI,3311 N GALVEZ ST,,NEW ORLEANS,LA,70117,504-947-3373,1104 - FISH & SEAFOOD MARKETS,POPPA ENTERPRISES
-90.082568661225864,29.942860681515707,85128,PROJECT FOOD STORE #2,2238 MARTIN LUTHER KING JR BLVD,,NEW ORLEANS,LA,70113,504-586-1762,1101 - CONVENIENCE STORES,PROJECT FOOD STORE      #2 INC
-90.066028246976401,29.961328059028215,85129,QUARTER GROCERY & DELI,836 BURGUNDY ST,,NEW ORLEANS,LA,70116,504-529-2702,1101 - CONVENIENCE STORES,ROSEMARY & TRANG INC
-90.062656335104577,29.96186932703479,85130,QUARTER MASTER DELI,1100 BOURBON ST,,NEW ORLEANS,LA,70116,,1101 - CONVENIENCE STORES,MISAEL LLC
-90.091680952782028,29.929601837003684,85131,QUICK STOP,3331 CARONDELET ST,,NEW ORLEANS,LA,70115,,1101 - CONVENIENCE STORES,FIRAS INC
-90.048156460637358,29.973748870562126,85132,QUICKIES DISCOUNT,1535 FRANKLIN AVE,,NEW ORLEANS,LA,70117,504-259-3655,1101 - CONVENIENCE STORES,"AMEER, LLC"
-90.076989294556824,29.951922709288411,85133,QUICKY'S,2701 TULANE AVE,,NEW ORLEANS,LA,70119,504-822-3429,1106 - GROCERY (EXC CONVENIENCE) STORES,JAFAR ABUKHALIL INC
-90.110123652128607,29.984452084400566,85134,QUIK PIK FOOD MART/DOLLY'S    DELI INC,5151 CANAL BLVD,,NEW ORLEANS,LA,70124,,1101 - CONVENIENCE STORES,QUIK PIK FOOD MART/DOLLYDELI INC
-90.107071150220094,29.92059460482638,85135,RAINBOW GROCERY,4837 MAGAZINE ST,,NEW ORLEANS,LA,70115,,1106 - GROCERY (EXC CONVENIENCE) STORES,RAINBOW MAGAZINE LLC
-90.062683322550768,29.966698347872033,85136,RAMPART FOOD STORE,1700 N RAMPART ST,,NEW ORLEANS,LA,70116,,1101 - CONVENIENCE STORES,PHAN & LOC INC
-90.088427606980602,29.984382736029211,85137,RC FOUNTAIN SERVICES OF LOUISIANA,3443 ESPLANADE AVE,134,NEW ORLEANS,LA,70119,504-822-2250,"0138 - GROCERY & RELATED PRDCTS WHLSRS, OTH","RC FOUNTAIN SERVICES OF LOUISIANA, INC."
-90.076989294556824,29.951922709288411,85138,READ SEAFOOD,7340 READ BLVD,,NEW ORLEANS,LA,70127,504-377-8892,1101 - CONVENIENCE STORES,TBN SEAFOOD CORPORATION
-90.076989294556824,29.951922709288411,85139,READ SUPERMARKET,7045 READ BLVD,A,NEW ORLEANS,LA,70127,504-244-0741,1101 - CONVENIENCE STORES,LINA GROCERY INC
-90.079494249603044,29.935275926108602,85140,RED ZONE I,2025 ST CHARLES AVE,,NEW ORLEANS,LA,70130,504-522-3864,1106 - GROCERY (EXC CONVENIENCE) STORES,2025 ST CHARLES GROCERY LLC
-90.106380043274186,29.971343474480296,85141,REGLA STORE,4200 DHEMECOURT ST,,NEW ORLEANS,LA,70119,504-261-7600,1101 - CONVENIENCE STORES,"REGLA STORE, LLC"
-90.096752672849235,29.954871356058081,85142,RESTAURANT DEPOT,1111 S BROAD ST,,NEW ORLEANS,LA,70125,504-822-8881,"1501 - DURABLE GOODS WHLSRS, OTHER MISC","RD AMERICA, LLC"
-90.064824127323291,29.981392223019068,85143,RICHARD'S FOOD STORE,2001 N ROCHEBLAVE ST,,NEW ORLEANS,LA,70119,504-944-2891,1101 - CONVENIENCE STORES,SUNSHINE DISCOUNT FOOD INC
-90.0413793938053,29.953988448222621,85144,RIVER FINE FOODS STORE,1403 PATTERSON ST,,NEW ORLEANS,LA,70114,504-362-4795,1101 - CONVENIENCE STORES,A. B. & R. FINE FOODS LL
-90.12066403494704,29.957054464413339,85145,ROBERT FRESH MARKET #124,8115 S CLAIBORNE AVE,,NEW ORLEANS,LA,70118,,1106 - GROCERY (EXC CONVENIENCE) STORES,CLAIBORNE FRESH MARKET LLC
-90.111500736180517,30.020648928071672,85146,ROBERT FRESH MARKET(ROBT E LEE),135 ROBERT E LEE BLVD,,NEW ORLEANS,LA,70124,504-885-7005,1106 - GROCERY (EXC CONVENIENCE) STORES,M ROBERT ENTERPRISES INC
-90.073964813900901,29.947843540233844,85147,ROUSE'S MARKET #46(CBD),701 BARONNE ST,,NEW ORLEANS,LA,70113,504-227-3838,1106 - GROCERY (EXC CONVENIENCE) STORES,"ROUSE'S ENTERPRISES, LLC."
-90.102389261560248,29.916910432706516,85148,ROUSES MARKET #26,4500 TCHOUPITOULAS ST,,NEW ORLEANS,LA,70115,504-896-7910,1105 - FULL SVC RESTAURANTS (TABLE SERVICE),"ROUSE'S ENTERPRISES, LLC"
-90.102389261560248,29.916910432706516,85149,ROUSES MARKET #26(UPTOWN),4500 TCHOUPITOULAS ST,,NEW ORLEANS,LA,70115,985-447-5998,1106 - GROCERY (EXC CONVENIENCE) STORES,"ROUSE'S ENTERPRISES, LLC"
-90.096821081851616,29.976576256068533,85150,ROUSES MARKET #29(CARROLLTON),400 N CARROLLTON AVE,,NEW ORLEANS,LA,70119,,1106 - GROCERY (EXC CONVENIENCE) STORES,"ROUSE'S ENTERPRISES, LLC"
-90.064873156511283,29.95823857533351,85151,ROUSES MARKET #30,701 ROYAL ST,,NEW ORLEANS,LA,70116,504-447-5998,1106 - GROCERY (EXC CONVENIENCE) STORES,"ROUSE'S ENTERPRISES, LLC"
-90.054127181114708,30.028099197529663,85152,ROUSES MARKET #35(GENTILLY),6600 FRANKLIN AVE,,NEW ORLEANS,LA,70122,,1106 - GROCERY (EXC CONVENIENCE) STORES,"ROUSE'S ENTERPRISES, LLC"
-90.014464227185115,29.920483535643186,85153,ROUSES MARKET #36(DE GAULLE),4001 GENERAL DE GAULLE DR,,NEW ORLEANS,LA,70114,985-447-5998,1106 - GROCERY (EXC CONVENIENCE) STORES,"ROUSE'S ENTERPRISES, LLC"
-90.076989294556824,29.951922709288411,85154,RT ONE SHOP,1242 GORDON STREET,,NEW ORLEANS,LA,70117,,1101 - CONVENIENCE STORES,RANDOLPH THOMAS
-90.10165611927809,29.952015238781076,85155,RUSTY'S POBOY SEAFOOD,4122 WASHINGTON AVE,,NEW ORLEANS,LA,70125,504-821-1771,1101 - CONVENIENCE STORES,RUSTYS POBOY SEAFOOD INC
-90.070092213232698,29.951949375651811,85156,S & K GIFT AND SNACKS,201 ST CHARLES AVE,#223,NEW ORLEANS,LA,70170,,1101 - CONVENIENCE STORES,"LA 405 CHEN, LLC"
-90.080580118887028,29.974639486036835,85157,S EXPRESS FOOD STORE,2703 URSULINES AVE,,NEW ORLEANS,LA,70119,,1106 - GROCERY (EXC CONVENIENCE) STORES,S EXPRESS FOOD STORE LLC
-89.990869842430598,30.014069683333961,85158,SAM'S FOOD & LIQUOR,8201 CHEF MENTEUR HWY,,NEW ORLEANS,LA,70126,504-610-7012,1106 - GROCERY (EXC CONVENIENCE) STORES,HALLA GROUP LLC.
-89.991780649006046,30.029722439011948,85159,SAM'S MEAT MARKET,8426 I 10 E SERVICE RD,,NEW ORLEANS,LA,70127,,1103 - MEAT MARKETS,SAMI LLC
-90.058767563901242,29.98894982759073,85160,SAMMY'S FOOD SERVICE,3000 ELYSIAN FIELDS AVE,,NEW ORLEANS,LA,70122,504-947-0675,1103 - MEAT MARKETS,"SCHLOEGEL, SAMUEL A"
-90.10407554361484,29.968764171494538,85161,SANDWICH SHOP,645 S PIERCE ST,,NEW ORLEANS,LA,70119,504-482-3295,1101 - CONVENIENCE STORES,"SALOMON, ELGIN"
-90.076989294556824,29.951922709288411,85162,SAVE -A- LOT #466-6435,3033 S CARROLLTON AVE,,NEW ORLEANS,LA,70118,504-866-6637,1106 - GROCERY (EXC CONVENIENCE) STORES,"MORAN FOODS, LLC"
-90.019098048155499,29.92525007302023,85163,SAVE A LOT #378-5434,3640 MACARTHUR BLVD,,NEW ORLEANS,LA,70114,504-362-5036,1106 - GROCERY (EXC CONVENIENCE) STORES,"MORAN FOODS, LLC"
-90.047221855820183,29.976738434339925,85164,SAVE A LOT #379-5324,1841 ALMONASTER AVE,,NEW ORLEANS,LA,70117,504-942-0897,1106 - GROCERY (EXC CONVENIENCE) STORES,"MORAN FOODS, LLC"
-89.973931758757402,30.032979759902634,85165,SAVE A LOT - #464-4744,9999 LAKE FOREST BLVD,,NEW ORLEANS,LA,70127,504-244-1538,1106 - GROCERY (EXC CONVENIENCE) STORES,"MORAN FOODS, LLC"
-90.074722562047597,30.006708639048625,85166,SAVE A LOT - 463-4743,4726 PARIS AVE,,NEW ORLEANS,LA,70122,504-282-2966,1106 - GROCERY (EXC CONVENIENCE) STORES,"MORAN FOODS, LLC"
-90.095761075004788,29.94276525065721,85167,SAVE-A-LOT #377-4793,2841 S CLAIBORNE AVE,,NEW ORLEANS,LA,70125,504-822-4005,1106 - GROCERY (EXC CONVENIENCE) STORES,"MORAN FOODS, LLC"
-90.038540952832378,29.977455006410008,85168,SAVERS,3233 N GALVEZ ST,,NEW ORLEANS,LA,70117,,1106 - GROCERY (EXC CONVENIENCE) STORES,"SAVERS, LLC"
-90.051969783282189,29.964942085968797,85169,SCHIRO'S SUPER FOOD STORE INC,2483 ROYAL ST,,NEW ORLEANS,LA,70117,504-945-4425,1105 - FULL SVC RESTAURANTS (TABLE SERVICE),SCHIRO'S SUPER FOOD STORE INC
-90.114809455932118,30.023869028998092,85170,SCHUBERT MARINE,126 S ROADWAY ST,,NEW ORLEANS,LA,70124,5042828136,1101 - CONVENIENCE STORES,CRESCENT CITY MARINE GROUP INC
-90.073184010578785,29.989033389610142,85171,SEATON SEAFOOD MARKET,3040 PARIS AVE,,NEW ORLEANS,LA,70119,,1104 - FISH & SEAFOOD MARKETS,"SEATON, CAROLYN         SEATON, EDDIE"
-90.052846609176328,29.968593333842801,85172,SHANK CHARCUTERIE,2352 ST CLAUDE AVE,,NEW ORLEANS,LA,70117,,1103 - MEAT MARKETS,"SHANK SHOP, LLC"
-90.061385736829578,29.958931217365759,85173,SIDNEY'S WINE CELLAR,917 DECATUR ST,,NEW ORLEANS,LA,70116,,1106 - GROCERY (EXC CONVENIENCE) STORES,SIDENY'S LLC
-90.130691340409797,29.948247683365629,85174,SIMONES MARKET,8201 OAK ST,,NEW ORLEANS,LA,70118,,1106 - GROCERY (EXC CONVENIENCE) STORES,SIMONES MARKET LLC
-90.132402986615347,29.935202377355814,85175,SINGLETON MINI MART,7446 GARFIELD ST,,NEW ORLEANS,LA,70118,504-866-4741,1101 - CONVENIENCE STORES,"NGU CORPORATION         NGUYEN, MAN V"
-90.05863913367898,29.96163292614516,85176,SMALL MART,1303 DECATUR ST,,NEW ORLEANS,LA,70116,504-330-5716,1101 - CONVENIENCE STORES,BAZAAR LLC
-89.981250612466795,30.014991441964323,85177,SOHANA GROCERY,8900 CHEF MENTEUR HWY,,NEW ORLEANS,LA,70127,,1101 - CONVENIENCE STORES,SOHANA GROCERY STORE LLC
-90.076989294556824,29.951922709288411,85178,SOUL FOOD CUSINE EXPRESS,3146 GEN MEYER AVE,,NEW ORLEANS,LA,70114,,1106 - GROCERY (EXC CONVENIENCE) STORES,SHAWNTELL MANUEL
-90.090535669739324,29.9375881476386,85179,SOUL'S SEAFOOD MARKET,2732 LA SALLE ST,,NEW ORLEANS,LA,70113,504-899-4420,1104 - FISH & SEAFOOD MARKETS,QUAN VAN NGUYEN
-90.091364181663167,29.944714284188759,85180,SOUTH CLAIBORNE MARKET,2349 S CLAIBORNE AVE,,NEW ORLEANS,LA,70125,504-558-0303,1101 - CONVENIENCE STORES,"DAVID & HONG, INC."
-90.02709273462736,30.032274434874505,85181,SPEED RACER,8020 DOWNMAN RD,104,NEW ORLEANS,LA,70126,504-248-2005,1101 - CONVENIENCE STORES,COMPAK DELI INC
-90.079283058695466,29.995957749312211,85182,SPIDERS  MEAT MARKET,3800 ST BERNARD AVE,,NEW ORLEANS,LA,70122,504-455-8170,1106 - GROCERY (EXC CONVENIENCE) STORES,SPIDERS I LLC
-90.080588160646258,29.934384078034491,85183,ST CHARLES 155,2139 ST CHARLES AVE,,NEW ORLEANS,LA,70130,,1101 - CONVENIENCE STORES,BROTHERS PETROLEUM LLC
-90.076989294556824,29.951922709288411,85184,ST ROCH FOOD MART,3135 SAINT ROCH AVE,,NEW ORLEANS,LA,70122,,1106 - GROCERY (EXC CONVENIENCE) STORES,ST ROCH FOOD MART  LLC
-90.078464419304865,29.927184430991289,85185,ST VINCENT SUPER MARKET,2372 CONSTANCE ST,,NEW ORLEANS,LA,70130,504-525-3233,1106 - GROCERY (EXC CONVENIENCE) STORES,PHUNG BOI INC
-90.016851781334267,29.961838258276906,85186,ST. MAURICE GROCERY,5467 ST CLAUDE AVE,A,NEW ORLEANS,LA,70117,504-000-0000,1106 - GROCERY (EXC CONVENIENCE) STORES,MARK NGUYEN
-90.077115563802067,29.929537300339724,85187,STEIN'S MARKET AND DELI,2207 MAGAZINE ST,,NEW ORLEANS,LA,70130,504-527-0771,"1169 - MISC STORE RTLERS (EX TOBAC), ALL OTH",AU LAIT CRU LLC
-90.017980287212438,30.011817840162575,85188,STEMWAY MEAT MARKET & DELI,4350 STEMWAY DR,,NEW ORLEANS,LA,70126,,1101 - CONVENIENCE STORES,IYAD LLC
-90.092497049691033,29.917981261004538,85189,STOCK POT LLC (THE),3701 TCHOUPITOULAS ST,STE D,NEW ORLEANS,LA,70115-1339,504-897-9192,"0138 - GROCERY & RELATED PRDCTS WHLSRS, OTH",STOCK POT LLC (THE)
-90.130264445040041,29.950131956119847,85190,STOP & CARRY GROCERY,1328 DANTE ST,,NEW ORLEANS,LA,70118,504-866-8347,1101 - CONVENIENCE STORES,MAMA INC
-90.078228009937348,29.993840794513357,85191,STOPJOCKIN,3600 JUMONVILLE ST,,NEW ORLEANS,LA,70122,,1101 - CONVENIENCE STORES,STOPJOCKIN
-90.073167806515897,29.95283602517825,85192,STYLL WATER,935 GRAVIER ST,10TH FLR,NEW ORLEANS,LA,70112,,"0138 - GROCERY & RELATED PRDCTS WHLSRS, OTH","STYLL WATER,LLC"
-90.059022777866147,29.973014039773094,85193,SUNSHINE FOOD MARKET,2020 N CLAIBORNE AVE,,NEW ORLEANS,LA,70116,504-304-6135,1106 - GROCERY (EXC CONVENIENCE) STORES,SUNSHINE FOOD MARKET INC
-90.040495089397496,29.945326564598879,85194,SUPER DISCOUNT CITY,1600 NEWTON ST,,NEW ORLEANS,LA,70114,,1106 - GROCERY (EXC CONVENIENCE) STORES,SDC SUPER DISCOUNT INC
-90.119653822910834,29.955581919066706,85195,SUPER SERVE,8023 S CLAIBORNE AVE,,NEW ORLEANS,LA,70125,504-862-9079,1101 - CONVENIENCE STORES,I ZENITH INC
-90.108248729478674,29.935080936353643,85196,SUPERMERCADO LAS ACACIAS,4929 FRERET ST,,NEW ORLEANS,LA,70115,504-896-2251,1101 - CONVENIENCE STORES,"SUPERMACADO LAS ACACIAS, LLC"
-90.076989294556824,29.951922709288411,85197,SWIRL,3141 3143 PONCE DE LEON ST,,NEW ORLEANS,LA,70119,504-304-0635,"1110 - BEER, WINE & LIQUOR STORES","BEVO VINO, LLC"
-90.053270056191081,29.99675665197039,85198,T & H GROCERY,3700 CLEMATIS ST,,NEW ORLEANS,LA,70122,504-940-0709,1101 - CONVENIENCE STORES,THU HA ENTERPRISES INC
-89.984500416406959,29.92348225137372,85199,T & T FOOD MART,6419 GENERAL MEYER AVE,,NEW ORLEANS,LA,70131,504-393-0201,1106 - GROCERY (EXC CONVENIENCE) STORES,SAMZI  G INC
-90.073382636529715,29.925467088509496,85200,T & T SEAFOOD,548 JACKSON AVE,,NEW ORLEANS,LA,70130,,1104 - FISH & SEAFOOD MARKETS,"JOE KIND SUPERMARKET, INC"
-89.967193907869117,30.018323343738626,85201,TAN VIET WAREHOUSE,10100 CHEF MENTEUR HWY,,NEW ORLEANS,LA,70127,504-241-9903,1106 - GROCERY (EXC CONVENIENCE) STORES,BIEN V NGUYEN
-90.118713740515787,29.916084770997237,85202,TCHOUP-STOP,5600 TCHOUPITOULAS ST,,NEW ORLEANS,LA,70115,504-595-3112,1101 - CONVENIENCE STORES,UPTOWN GAS STATION MANAGLLC
-90.085226895460963,29.980645150828604,85203,TERRANOVA BROS SUPERETTE,3308 ESPLANADE AVE,,NEW ORLEANS,LA,70119-3132,,1101 - CONVENIENCE STORES,"TERRANOVA, BENJAMIN A"
-90.009551503803877,30.011552259434392,85204,TEX MART,6733 CHEF MENTEUR HWY,,NEW ORLEANS,LA,70126,504-333-6282,1101 - CONVENIENCE STORES,TEX MART INC
-90.088427606980602,29.984382736029211,85205,THE BAYOU GROCERY,3443 ESPLANADE AVE,134,NEW ORLEANS,LA,70119,,1101 - CONVENIENCE STORES,"THE BAYOU GROCERY, LLC"
-90.108507127603971,29.924372251206698,85206,THE CREOLE CREAMERY,4924 PRYTANIA ST,,NEW ORLEANS,LA,70115,504-885-7028,1101 - CONVENIENCE STORES,"CREOLE CONES, INC"
-90.076989294556824,29.951922709288411,85207,THE EVERYTHING SHOPPE,444 CANAL ST,,NEW ORLEANS,LA,70130,504-586-0703,"1110 - BEER, WINE & LIQUOR STORES",MAGNOLIA ENTERPRISES INC
-90.090938483474631,29.928187510743307,85208,THE FRESH MARKET,3338 ST CHARLES AVE,,NEW ORLEANS,LA,70118,336-217-4077,"1111 - SPECIALTY FOOD STORES, ALL OTHER","THE FRESH MARKET, INC"
-90.110329331670542,29.981336791495824,85209,THE HERB IMPORT COMPANY,5055 CANAL ST,,NEW ORLEANS,LA,70119,504-488-4889,"1111 - SPECIALTY FOOD STORES, ALL OTHER",THE HERB IMPORT COMPANY INC
-90.065160566148506,29.958157599820332,85210,THE OLD COFFEE POT RESTAURANT,714 ST PETER ST,,NEW ORLEANS,LA,70116,504-524-3500,1105 - FULL SVC RESTAURANTS (TABLE SERVICE),DUSTIN INVESTMENTS LLC
-89.807687902849523,30.064348470903788,85211,THE YELLOW STORE,20824 CHEF MENTEUR HWY,A,NEW ORLEANS,LA,70129,504-302-9851,1106 - GROCERY (EXC CONVENIENCE) STORES,HI TIDE BAR AND GRILL LLC
-90.100217704487648,29.940832037625512,85212,THREE GUYS WITH GAS,4101 S CLAIBORNE AVE,,NEW ORLEANS,LA,70125,,1101 - CONVENIENCE STORES,THREE GUYS WITH GAS. LLC
-90.007948358098119,29.918707807632785,85213,TIGER MART,3450 KABEL DR,,NEW ORLEANS,LA,70131,504-394-0240,1101 - CONVENIENCE STORES,TIGER MART LLC.
-90.061983681919429,29.967359670991865,85214,TODAYS CAJUN SEAFOOD,1700 MCSHANE PL,,NEW ORLEANS,LA,70116,,1106 - GROCERY (EXC CONVENIENCE) STORES,TODAYS CAJUN SEAFOOD
-90.03720752971779,29.97688209071184,85215,TOT'S ONE STOP CORNER STORE,3400 N GALVEZ ST,,NEW ORLEANS,LA,70117,,1106 - GROCERY (EXC CONVENIENCE) STORES,LATASHA JONES
-90.067265019658819,29.958663918944783,85216,TOULOUSE HOUSE,605 DAUPHINE ST,,NEW ORLEANS,LA,70112,504-529-4270,1101 - CONVENIENCE STORES,"BAHU, INC"
-90.093993847043677,29.963537027206524,85217,TRANS SEAFOOD,2931 TULANE AVE,,NEW ORLEANS,LA,70119,,1101 - CONVENIENCE STORES,TRANS SEAFOOD LLC
-90.099010576936507,29.941069657973532,85218,TRIANGLE DELI,3701 S CLAIBORNE AVE,,NEW ORLEANS,LA,70125,,1101 - CONVENIENCE STORES,HALO 7 LLC
-90.031044091991603,29.964320546641705,85219,TRUE CAJUN SEAFOOD,4400 ST CLAUDE AVE,,NEW ORLEANS,LA,70117,504-948-8998,1106 - GROCERY (EXC CONVENIENCE) STORES,CHAU TWO CORPORATION
-90.033864631369013,29.964517456049435,85220,TRY ME COFFEE MILLS,1014 FRANCE ST,,NEW ORLEANS,LA,70117-5331,504-945-4314,"0138 - GROCERY & RELATED PRDCTS WHLSRS, OTH",ROBERT H LUTZ
-90.067434947809332,29.950948031336665,85221,TSAI TIME,212 MAGAZINE ST,,NEW ORLEANS,LA,70130,,1101 - CONVENIENCE STORES,NIKOLAOS PANTAZIS
-90.049569202357716,30.001147167827405,85222,TUCKAWAY FOOD STORE & DELI,2619 JASMINE ST,,NEW ORLEANS,LA,70122,504-621-7578,1106 - GROCERY (EXC CONVENIENCE) STORES,"TUCKAWAY, LLC"
-90.076989294556824,29.951922709288411,85223,TULANE CATERING,31 MCALISTER DR,,NEW ORLEANS,LA,70118,504-865-5254,1101 - CONVENIENCE STORES,SODEXO MANAGEMENT INC
-89.912274866340852,30.036518000962236,85224,TUYET HUONG,14389 CHEF MENTEUR HWY,B,NEW ORLEANS,LA,70129,504-254-3178,1103 - MEAT MARKETS,MICHAEL L TRAN
-89.965717318842366,30.018620015647908,85225,TWINS SEAFOOD,10240 CHEF MENTEUR HWY,,NEW ORLEANS,LA,70127,,1104 - FISH & SEAFOOD MARKETS,"TWINS SEAFOOD, LLC"
-90.068615888491394,29.953830693613721,85226,UNIQUE GENERAL STORE,127 ROYAL ST,,NEW ORLEANS,LA,70130,,1101 - CONVENIENCE STORES,SAM & SONS INC.
-90.079916568456497,29.944893970646866,85227,UPTOWN DISCOUNT STORE,1141 SIMON BOLIVAR AVE,,NEW ORLEANS,LA,70113,,1101 - CONVENIENCE STORES,UPTOWN DISCOUNT STORE INC
-90.090573356516174,29.93320109576738,85228,UPTOWN FOOD MARKET,2001 SEVENTH ST,,NEW ORLEANS,LA,70115,504-895-9191,1106 - GROCERY (EXC CONVENIENCE) STORES,"UPTOWN FOOD MARKET, INC"
-90.12572983659598,29.954415480642634,85229,UPTOWN SUPERMARKET,1940 DANTE ST,,NEW ORLEANS,LA,70118,504-455-4111,1106 - GROCERY (EXC CONVENIENCE) STORES,UPTOWN DANTE SUPERMARKET INC
-89.991662452936367,30.028219649028888,85230,UR FAMILY MATTERS,5741 CROWDER BLVD,,NEW ORLEANS,LA,70127,404-915-8892,1101 - CONVENIENCE STORES,UR FAMILY MATTERS INC
-89.995463301391794,30.03554819560123,85231,USA MEAT MARKET,8454 MORRISON RD,,NEW ORLEANS,LA,70127,504-259-5009,1106 - GROCERY (EXC CONVENIENCE) STORES,"USA MEAT MARKET, LLC"
-90.022968620618641,29.940426723667752,85232,USA SUPERMARKET,3141 GENERAL MEYER AVE,,NEW ORLEANS,LA,70114,504-324-4099,1106 - GROCERY (EXC CONVENIENCE) STORES,"USA SUPERMARKET, L.L.C."
-90.072217913580587,29.966163374397958,85233,V & T FOOD STORE,913 N CLAIBORNE AVE,,NEW ORLEANS,LA,70116,504-827-9997,1106 - GROCERY (EXC CONVENIENCE) STORES,THONG SINH INC
-90.061175279022422,29.962097336980356,85234,VERTI MARTE INC,1201 ROYAL ST,,NEW ORLEANS,LA,70116,504-525-4767,1101 - CONVENIENCE STORES,"THE VERTI MARTE, INC"
-90.072243269938653,29.944546989034933,85235,VHKR & ASSOCIATES INC D/B/A   PRICE BUSTERS,867 ST CHARLES AVE,,NEW ORLEANS,LA,70130,504-529-3759,1101 - CONVENIENCE STORES,VHKR & ASSOCTIATES INC
-90.100097872802337,29.921048906741717,85236,VICKY'S SUPERMARKET,4237 MAGAZINE ST,,NEW ORLEANS,LA,70115,504-899-8579,1101 - CONVENIENCE STORES,CUONG LAM INC
-89.912236670809563,30.037409320955927,85237,VIET MY SUPERMARKET,4656 ALCEE FORTIER BLVD,,NEW ORLEANS,LA,70129,504-254-0682,1101 - CONVENIENCE STORES,HANG VU ENTERPRISES     INC
-90.042379232761121,29.967055551198474,85238,WAGNERS,3200 ST CLAUDE AVE,,NEW ORLEANS,LA,70117,504-301-1548,1106 - GROCERY (EXC CONVENIENCE) STORES,"AWAMIRA, LLC"
-89.961463467552093,30.043427606910036,85239,WAL-MART #912(EASTERN NO),6000 BULLARD AVE,,NEW ORLEANS,LA,70128,479-204-6234,"1119 - GENERAL MERCHANDISE STORES, ALL OTH","WAL-MART LOUISIANA, LLC"
-90.039356823812469,30.00521676100724,85240,WALMART #3167(GENTILLY),4301 CHEF MENTEUR HWY,,NEW ORLEANS,LA,70164,479-204-6234,"1119 - GENERAL MERCHANDISE STORES, ALL OTH","WAL-MART LOUISIANA, LLC"
-90.038700176421059,29.971944065472208,85241,WE GOT IT,3401 N CLAIBORNE AVE,,NEW ORLEANS,LA,70117,,1101 - CONVENIENCE STORES,"WE GOT IT, LLC"
-90.076989294556824,29.951922709288411,85242,WE SERV FOOD STORE,3319 N N GALVEZ ST,,NEW ORLEANS,LA,70122,,1106 - GROCERY (EXC CONVENIENCE) STORES,"WE SERV,LLC"
-90.084734764806313,29.967206350294727,85243,WHOLE FOODS MARKET,300 N BROAD ST,,NEW ORLEANS,LA,70119,,1106 - GROCERY (EXC CONVENIENCE) STORES,WHOLE FOOD COMPANY INC
-90.117647833342986,29.92083421507466,85244,WHOLE FOODS MARKET,5600 MAGAZINE ST,,NEW ORLEANS,LA,70115,000-899-9119,1101 - CONVENIENCE STORES,"WHOLE FOOD COMPANY, INC"
-90.116647522993446,29.916272459095818,85245,WINN DIXIE  #1430,5400 TCHOUPITOULAS ST,,NEW ORLEANS,LA,70115,504-895-2966,1106 - GROCERY (EXC CONVENIENCE) STORES,WINN DIXIE MONTGOMERY LLC
-90.012022035651881,29.923630354496265,85246,WINN DIXIE #1426,3008 HOLIDAY DR,,NEW ORLEANS,LA,70131,504-398-0313,1106 - GROCERY (EXC CONVENIENCE) STORES,WINN DIXIE MONTGOMERY LLC
-89.972309694458417,30.018733937285862,85247,WINN DIXIE #1439,9701 CHEF MENTEUR HWY,,NEW ORLEANS,LA,70127,504-244-0701,1106 - GROCERY (EXC CONVENIENCE) STORES,WINN DIXIE MONTGOMERY LLC
-90.099430178570003,29.978305643036123,85248,WINN DIXIE STORE #1472,401 N CARROLLTON AVE,,NEW ORLEANS,LA,70119,,1106 - GROCERY (EXC CONVENIENCE) STORES,WINN DIXIE MONTGOMERY LLC
-90.107440412915523,29.924373023075429,85249,ZARA'S LIL GIANT SUPERMARKET,4838 PRYTANIA ST,,NEW ORLEANS,LA,70115,504-895-0581,1101 - CONVENIENCE STORES,ZARA'S LIL GIANT SUPERMA
